[{"OBJECT_NAME":"STARLINK-1623","OBJECT_ID":"2020-057N","EPOCH":"2026-03-09T21:27:36.782208","MEAN_MOTION":15.52539688,"ECCENTRICITY":0.00071266,"INCLINATION":53.0504,"RA_OF_ASC_NODE":254.9883,"ARG_OF_PERICENTER":167.5624,"MEAN_ANOMALY":192.5562,"EPHEMERIS_TYPE":0,"CLASSIFICATION_TYPE":"U","NORAD_CAT_ID":46129,"ELEMENT_SET_NO":999,"REV_AT_EPOCH":30695,"BSTAR":0.0020334212,"MEAN_MOTION_DOT":0.00128626,"MEAN_MOTION_DDOT":0},{"OBJECT_NAME":"FLOCK 4Q-23","OBJECT_ID":"2023-174BD","EPOCH":"2026-03-09T22:52:39.857376","MEAN_MOTION":15.55369976,"ECCENTRICITY":0.00068869,"INCLINATION":97.3949,"RA_OF_ASC_NODE":159.4803,"ARG_OF_PERICENTER":139.7174,"MEAN_ANOMALY":220.4591,"EPHEMERIS_TYPE":0,"CLASSIFICATION_TYPE":"U","NORAD_CAT_ID":58307,"ELEMENT_SET_NO":999,"REV_AT_EPOCH":13047,"BSTAR":0.00072885408,"MEAN_MOTION_DOT":0.00049706,"MEAN_MOTION_DDOT":0}]
